NORAD_CAT_ID,OBJECT_NAME,OBJECT_TYPE,EPOCH,MEAN_MOTION,ECCENTRICITY,INCLINATION,RA_OF_ASC_NODE,ARG_OF_PERICENTER,MEAN_ANOMALY,BSTAR,MEAN_MOTION_DOT,MEAN_MOTION_DDOT,TLE_LINE0,TLE_LINE1,TLE_LINE2,SEMIMAJOR_AXIS,PERIOD,APOGEE,PERIGEE,DECAYED
54766.0,STARLINK-5471,PAYLOAD,2023-05-17 03:18:01,15.08831819,0.000102,53.2157,336.9751,87.9348,272.1761,-6.3282e-05,-1.294e-05,0.0,0 STARLINK-5471,1 54766U 22175J   23137.13751915 -.00001294  00000-0 -63282-4 0  9996,2 54766  53.2157 336.9751 0001020  87.9348 272.1761 15.08831819 22632,6917.905,95.438,540.476,539.065,0.0
54766.0,STARLINK-5471,PAYLOAD,2023-05-17 20:47:16,15.08842044,9.16e-05,53.2161,333.7052,75.3238,284.7855,0.00025404,3.758e-05,0.0,0 STARLINK-5471,1 54766U 22175J   23137.86615894  .00003758  00000-0  25404-3 0  9999,2 54766  53.2161 333.7052 0000916  75.3238 284.7855 15.08842044 24905,6917.874,95.437,540.373,539.105,0.0
54766.0,STARLINK-5471,PAYLOAD,2023-05-17 23:58:02,15.08844631,0.0001014,53.2161,333.1099,77.0885,283.022,0.00052949,8.15e-05,0.0,0 STARLINK-5471,1 54766U 22175J   23137.99863909  .00008150  00000-0  52949-3 0  9990,2 54766  53.2161 333.1099 0001014  77.0885 283.0220 15.08844631 22761,6917.866,95.437,540.433,539.03,0.0
54766.0,STARLINK-5471,PAYLOAD,2023-05-18 12:41:07,15.08842885,0.0001052,53.2161,330.7308,74.3081,285.8027,0.00045508,6.963e-05,0.0,0 STARLINK-5471,1 54766U 22175J   23138.52856039  .00006963  00000-0  45508-3 0  9999,2 54766  53.2161 330.7308 0001052  74.3081 285.8027 15.08842885 22840,6917.872,95.437,540.464,539.009,0.0
54766.0,STARLINK-5471,PAYLOAD,2023-05-18 22:13:26,15.08854833,0.0001057,53.2161,328.9466,72.9937,287.1171,0.00062728,9.713e-05,0.0,0 STARLINK-5471,1 54766U 22175J   23138.92599663  .00009713  00000-0  62728-3 0  9999,2 54766  53.2161 328.9466 0001057  72.9937 287.1171 15.08854833 25061,6917.835,95.437,540.431,538.969,0.0
54766.0,STARLINK-5471,PAYLOAD,2023-05-19 18:53:26,15.08847485,0.000106,53.2165,325.0804,77.1182,282.9929,0.00022197,3.247e-05,0.0,0 STARLINK-5471,1 54766U 22175J   23139.78711573  .00003247  00000-0  22197-3 0  9992,2 54766  53.2165 325.0804 0001060  77.1182 282.9929 15.08847485 23036,6917.858,95.437,540.456,538.989,0.0
54766.0,STARLINK-5471,PAYLOAD,2023-05-20 18:44:13,15.08854133,0.0001093,53.2159,320.6196,87.7861,272.3256,0.00019252,2.779e-05,0.0,0 STARLINK-5471,1 54766U 22175J   23140.78070976  .00002779  00000-0  19252-3 0  9996,2 54766  53.2159 320.6196 0001093  87.7861 272.3256 15.08854133 25341,6917.837,95.437,540.458,538.946,0.0
54766.0,STARLINK-5471,PAYLOAD,2023-05-21 12:13:28,15.08831788,7.05e-05,53.2147,317.3491,68.4938,291.6129,-3.2391e-05,-8.03e-06,0.0,0 STARLINK-5471,1 54766U 22175J   23141.50936295 -.00000803  00000-0 -32391-4 0  9990,2 54766  53.2147 317.3491 0000705  68.4938 291.6129 15.08831788 25455,6917.905,95.438,540.258,539.283,0.0
54766.0,STARLINK-5471,PAYLOAD,2023-05-21 18:35:01,15.08828524,0.0001039,53.2155,316.1595,97.8455,262.2655,-9.6634e-05,-1.825e-05,0.0,0 STARLINK-5471,1 54766U 22175J   23141.77432396 -.00001825  00000-0 -96634-4 0  9997,2 54766  53.2155 316.1595 0001039  97.8455 262.2655 15.08828524 23334,6917.915,95.438,540.499,539.062,0.0
54766.0,STARLINK-5471,PAYLOAD,2023-05-22 04:07:20,15.08836893,0.0001017,53.2162,314.3755,94.7354,265.3755,9.9801e-05,1.301e-05,0.0,0 STARLINK-5471,1 54766U 22175J   23142.17176431  .00001301  00000-0  99801-4 0  9993,2 54766  53.2162 314.3755 0001017  94.7354 265.3755 15.08836893 23399,6917.89,95.438,540.458,539.051,0.0
54766.0,STARLINK-5471,PAYLOAD,2023-05-22 12:04:16,15.08839432,9.19e-05,53.2164,312.8881,102.5807,257.5287,0.00017489,2.497e-05,0.0,0 STARLINK-5471,1 54766U 22175J   23142.50296403  .00002497  00000-0  17489-3 0  9990,2 54766  53.2164 312.8881 0000919 102.5807 257.5287 15.08839432 25606,6917.882,95.438,540.383,539.111,0.0
54766.0,STARLINK-5471,PAYLOAD,2023-05-22 18:25:48,15.08850663,9.38e-05,53.2162,311.6995,105.5299,254.5797,0.00056126,8.658e-05,0.0,0 STARLINK-5471,1 54766U 22175J   23142.76792231  .00008658  00000-0  56126-3 0  9994,2 54766  53.2162 311.6995 0000938 105.5299 254.5797 15.08850663 25642,6917.848,95.437,540.362,539.064,0.0
54766.0,STARLINK-5471,PAYLOAD,2023-05-23 11:55:03,15.08840174,8.59e-05,53.2165,308.428,95.6511,264.4579,0.00010535,1.389e-05,0.0,0 STARLINK-5471,1 54766U 22175J   23143.49656498  .00001389  00000-0  10535-3 0  9997,2 54766  53.2165 308.4280 0000859  95.6511 264.4579 15.08840174 23590,6917.88,95.438,540.339,539.151,0.0
54766.0,STARLINK-5471,PAYLOAD,2023-05-23 21:27:21,15.08847781,8.54e-05,53.2166,306.644,90.1051,270.0039,0.00052521,8.083e-05,0.0,0 STARLINK-5471,1 54766U 22175J   23143.89400328  .00008083  00000-0  52521-3 0  9999,2 54766  53.2166 306.6440 0000854  90.1051 270.0039 15.08847781 25815,6917.857,95.437,540.312,539.131,0.0
54766.0,STARLINK-5471,PAYLOAD,2023-05-24 14:56:36,15.08844399,9.16e-05,53.2162,303.3733,87.9726,272.1371,0.0005224,8.037e-05,0.0,0 STARLINK-5471,1 54766U 22175J   23144.62264680  .00008037  00000-0  52240-3 0  9997,2 54766  53.2162 303.3733 0000916  87.9726 272.1371 15.08844399 23768,6917.867,95.437,540.366,539.098,0.0
54766.0,STARLINK-5471,PAYLOAD,2023-05-25 16:22:46,15.08846953,9.42e-05,53.2161,298.6153,86.2249,273.8851,0.00039345,5.981e-05,0.0,0 STARLINK-5471,1 54766U 22175J   23145.68248671  .00005981  00000-0  39345-3 0  9992,2 54766  53.2161 298.6153 0000942  86.2249 273.8851 15.08846953 23927,6917.859,95.437,540.376,539.072,0.0
54766.0,STARLINK-5471,PAYLOAD,2023-05-25 19:33:33,15.0885076,9.75e-05,53.2161,298.0206,85.4275,274.6829,0.00048059,7.371e-05,0.0,0 STARLINK-5471,1 54766U 22175J   23145.81496548  .00007371  00000-0  48059-3 0  9992,2 54766  53.2161 298.0206 0000975  85.4275 274.6829 15.08850760 26104,6917.848,95.437,540.387,539.038,0.0
54766.0,STARLINK-5471,PAYLOAD,2023-05-26 09:52:01,15.08841661,0.0001264,53.2142,295.3444,83.0684,277.0452,0.00015686,2.21e-05,0.0,0 STARLINK-5471,1 54766U 22175J   23146.41112807  .00002210  00000-0  15686-3 0  9999,2 54766  53.2142 295.3444 0001264  83.0684 277.0452 15.08841661 24036,6917.875,95.437,540.615,538.866,0.0
54766.0,STARLINK-5471,PAYLOAD,2023-05-26 14:38:10,15.08842585,0.0001052,53.2155,294.4517,99.8018,260.3093,0.00014862,2.078e-05,0.0,0 STARLINK-5471,1 54766U 22175J   23146.60984686  .00002078  00000-0  14862-3 0  9999,2 54766  53.2155 294.4517 0001052  99.8018 260.3093 15.08842585 26227,6917.872,95.437,540.465,539.01,0.0
54766.0,STARLINK-5471,PAYLOAD,2023-05-26 16:13:33,15.08843302,9.84e-05,53.2156,294.1544,100.8291,259.2812,0.0001229,1.669e-05,0.0,0 STARLINK-5471,1 54766U 22175J   23146.67608646  .00001669  00000-0  12290-3 0  9993,2 54766  53.2156 294.1544 0000984 100.8291 259.2812 15.08843302 26239,6917.87,95.437,540.416,539.055,0.0
54766.0,STARLINK-5471,PAYLOAD,2023-05-27 19:15:07,15.0884152,9.16e-05,53.2164,289.0986,102.0871,258.0224,5.3214e-05,5.59e-06,0.0,0 STARLINK-5471,1 54766U 22175J   23147.80216742  .00000559  00000-0  53214-4 0  9990,2 54766  53.2164 289.0986 0000916 102.0871 258.0224 15.08841520 24247,6917.876,95.437,540.374,539.107,0.0
54766.0,STARLINK-5471,PAYLOAD,2023-05-28 15:55:07,15.08848867,8.06e-05,53.2157,285.2351,92.8643,267.2441,0.00021427,3.125e-05,0.0,0 STARLINK-5471,1 54766U 22175J   23148.66328430  .00003125  00000-0  21427-3 0  9995,2 54766  53.2157 285.2351 0000806  92.8643 267.2441 15.08848867 26532,6917.853,95.437,540.276,539.161,0.0
54766.0,STARLINK-5471,PAYLOAD,2023-05-29 09:24:22,15.08840448,8.68e-05,53.2154,281.9642,87.9232,272.1859,0.00010478,1.38e-05,0.0,0 STARLINK-5471,1 54766U 22175J   23149.39192732  .00001380  00000-0  10478-3 0  9995,2 54766  53.2154 281.9642 0000868  87.9232 272.1859 15.08840448 24489,6917.879,95.438,540.344,539.144,0.0
54766.0,STARLINK-5471,PAYLOAD,2023-05-29 14:10:31,15.08842002,8.29e-05,53.2157,281.0718,88.1861,271.9226,0.00010859,1.441e-05,0.0,0 STARLINK-5471,1 54766U 22175J   23149.59064588  .00001441  00000-0  10859-3 0  9995,2 54766  53.2157 281.0718 0000829  88.1861 271.9226 15.08842002 26671,6917.874,95.437,540.313,539.166,0.0
54766.0,STARLINK-5471,PAYLOAD,2023-05-29 15:45:54,15.08844799,8.29e-05,53.2156,280.7737,87.7284,272.3803,0.00013792,1.908e-05,0.0,0 STARLINK-5471,1 54766U 22175J   23149.65688426  .00001908  00000-0  13792-3 0  9992,2 54766  53.2156 280.7737 0000829  87.7284 272.3803 15.08844799 26683,6917.866,95.437,540.304,539.157,0.0
54766.0,STARLINK-5471,PAYLOAD,2023-05-30 12:25:56,15.08835092,8.8e-05,53.2173,276.91,89.0977,271.0116,-1.4774e-05,-5.23e-06,0.0,0 STARLINK-5471,1 54766U 22175J   23150.51801366 -.00000523  00000-0 -14774-4 0  9995,2 54766  53.2173 276.9100 0000880  89.0977 271.0116 15.08835092 26818,6917.895,95.438,540.369,539.152,0.0
54766.0,STARLINK-5471,PAYLOAD,2023-05-30 17:12:05,15.08830538,0.0001111,53.2182,276.0189,100.6186,259.4931,0.0001399,1.939e-05,0.0,0 STARLINK-5471,1 54766U 22175J   23150.71673318  .00001939  00000-0  13990-3 0  9999,2 54766  53.2182 276.0189 0001111 100.6186 259.4931 15.08830538 24684,6917.909,95.438,540.543,539.006,0.0
54766.0,STARLINK-5471,PAYLOAD,2023-05-31 13:52:06,15.08840723,8.56e-05,53.2175,272.1511,86.3136,273.7954,4.7641e-05,4.71e-06,0.0,0 STARLINK-5471,1 54766U 22175J   23151.57785071  .00000471  00000-0  47641-4 0  9995,2 54766  53.2175 272.1511 0000856  86.3136 273.7954 15.08840723 26977,6917.878,95.438,540.335,539.151,0.0
54766.0,STARLINK-5471,PAYLOAD,2023-05-31 15:27:29,15.08842136,9.22e-05,53.218,271.8525,86.7921,273.3177,8.1584e-05,1.011e-05,0.0,0 STARLINK-5471,1 54766U 22175J   23151.64408926  .00001011  00000-0  81584-4 0  9999,2 54766  53.2180 271.8525 0000922  86.7921 273.3177 15.08842136 24829,6917.874,95.437,540.377,539.101,0.0
54766.0,STARLINK-5471,PAYLOAD,2023-06-01 07:21:21,15.08828294,9.65e-05,53.2174,268.8801,80.3673,279.7429,0.00029157,4.354e-05,0.0,0 STARLINK-5471,1 54766U 22175J   23152.30649473  .00004354  00000-0  29157-3 0  9997,2 54766  53.2174 268.8801 0000965  80.3673 279.7429 15.08828294 27086,6917.916,95.438,540.449,539.114,0.0
